CSS (TIANHE)            
1 48274U 21035A   23307.11675073  .00037906  00000+0  44385-3 0  9992
2 48274  41.4726  30.0719 0003654  27.1395 332.9634 15.60791205143550
